GALAXY 11 (G-11)        
1 26038U 99071A   24356.96177560 -.00000012  00000+0  00000+0 0  9998
2 26038   5.3618  77.0871 0003393 252.4826 134.5348  0.99036630 91645
INTELSAT 9 (IS-9)       
1 26451U 00043A   24356.21577023 -.00000005  00000+0  00000+0 0  9996
2 26451   9.1948  54.0732 0003223 215.5069 324.5843  1.00268929 38692
INTELSAT 1R (IS-1R)     
1 26608U 00072A   24357.48868991 -.00000129  00000+0  00000+0 0  9996
2 26608   6.7229  70.6836 0008678 221.5745 159.1326  0.98975421 35870
INTELSAT 10 (IS-10)     
1 26766U 01019A   24356.77202118  .00000002  00000+0  00000+0 0  9996
2 26766   7.7753  64.7895 0004383 210.6507 159.3923  1.00272140 40188
INTELSAT 901 (IS-901)   
1 26824U 01024A   24356.42063015 -.00000190  00000+0  00000+0 0  9999
2 26824   0.0275  77.4618 0001618 228.3338 268.6107  1.00270314 17541
INTELSAT 902 (IS-902)   
1 26900U 01039A   24357.16092362 -.00000269  00000+0  00000+0 0  9996
2 26900   4.7415  78.3927 0005055 196.2266 184.4379  1.00272254 85263
INTELSAT 904 (IS-904)   
1 27380U 02007A   24357.45084418 -.00000200  00000+0  00000+0 0  9995
2 27380   5.5580  75.6525 0002945 200.2928 308.3442  1.00271497 46339
DIRECTV 5 (TEMPO 1)     
1 27426U 02023A   24357.60575087 -.00000040  00000+0  00000+0 0  9990
2 27426   3.4882  82.1015 0003371 198.5124 278.9856  1.00272350 82699
INTELSAT 905 (IS-905)   
1 27438U 02027A   24357.45188675 -.00000171  00000+0  00000+0 0  9998
2 27438   5.3846  76.2915 0002731 198.6399 314.7512  1.00272618 45931
GALAXY 3C (G-3C)        
1 27445U 02030A   24357.42549437 -.00000136  00000+0  00000+0 0  9995
2 27445   2.3446  84.9270 0002641  67.7142 357.1406  1.00271815 41065
INTELSAT 906 (IS-906)   
1 27513U 02041A   24357.39802078  .00000028  00000+0  00000+0 0  9991
2 27513   4.4198  79.6051 0006575 184.5738  34.6683  1.00271204 81593
GALAXY 23 (G-23)        
1 27854U 03034A   24357.50396553  .00000029  00000+0  00000+0 0  9992
2 27854   1.7943  86.5557 0002662 187.2341 238.2975  1.00272025 78314
GALAXY 13 (HORIZONS-1)  
1 27954U 03044A   24356.56924624  .00000146  00000+0  00000+0 0  9995
2 27954   0.0257  84.2884 0000152 264.7972 156.4369  1.00270356 77712
INTELSAT 10-02          
1 28358U 04022A   24357.38507557  .00000005  00000+0  00000+0 0  9998
2 28358   0.0180  32.6913 0000899 272.7657 283.6390  1.00270298 75128
XM-3 (RHYTHM)           
1 28626U 05008A   24356.93953419 -.00000190  00000+0  00000+0 0  9999
2 28626   0.0098 349.8950 0004250 235.1782 118.9873  1.00267200 37184
DIRECTV 8               
1 28659U 05019A   24357.59758410  .00000018  00000+0  00000+0 0  9992
2 28659   0.0188   7.2454 0003011 271.0333 269.4400  1.00272308 71641
GALAXY 28 (G-28)        
1 28702U 05022A   24357.36752567 -.00000169  00000+0  00000+0 0  9995
2 28702   1.8987  85.7009 0006852 188.3979 220.6036  1.00272274 46553
GALAXY 14 (G-14)        
1 28790U 05030A   24357.24789111 -.00000013  00000+0  00000+0 0  9991
2 28790   3.6231  81.5203 0001204 178.2312 309.0512  0.98944170 70866
SPACEWAY 2              
1 28903U 05046B   24357.56715984 -.00000041  00000+0  00000+0 0  9997
2 28903   4.0805  77.9690 0002132  81.2224 232.8069  0.99060579 45909
GALAXY 16 (G-16)        
1 29236U 06023A   24357.34283615 -.00000110  00000+0  00000+0 0  9997
2 29236   0.0346 147.1079 0002709 128.6978 199.9902  1.00272114 67544
DIRECTV 9S              
1 29494U 06043A   24357.61536859 -.00000096  00000+0  00000+0 0  9999
2 29494   1.0193  87.5234 0003082 188.5465 295.9098  1.00271777 45950
GALAXY 17 (G-17)        
1 31307U 07016B   24357.51577080 -.00000189  00000+0  00000+0 0  9999
2 31307   1.5959  86.8768 0007367 203.5768 261.7710  1.00270766 64375
DIRECTV 10              
1 31862U 07032A   24357.36483237 -.00000087  00000+0  00000+0 0  9993
2 31862   0.0116 124.1670 0000424 117.6427 238.1340  1.00273772 40160
INTELSAT 11 (IS-11)     
1 32253U 07044B   24357.44815088 -.00000252  00000+0  00000+0 0  9997
2 32253   2.1530  85.4141 0004365 201.2665 283.1341  1.00271420 63065
HORIZONS-2              
1 32388U 07063B   24357.41438583 -.00000237  00000+0  00000+0 0  9998
2 32388   1.2006  87.4008 0001992 184.9805 254.4687  1.00272299 62385
DIRECTV 11              
1 32729U 08013A   24357.22260885 -.00000109  00000+0  00000+0 0  9998
2 32729   0.0044  93.3935 0000281 201.8359 136.9873  1.00267782 40154
GALAXY 18 (G-18)        
1 32951U 08024A   24357.36993797  .00000042  00000+0  00000+0 0  9992
2 32951   0.0210  71.1810 0003008 201.0064 189.3855  1.00272586 40427
INTELSAT 25 (IS-25)     
1 33153U 08034A   24357.45049667 -.00000207  00000+0  00000+0 0  9990
2 33153   1.3076  87.0708 0003456 199.6526 295.4391  1.00270241 60264
GALAXY 19 (G-19)        
1 33376U 08045A   24357.29454597 -.00000123  00000+0  00000+0 0  9990
2 33376   0.0182   7.6363 0002890 274.5406 178.1976  1.00272014 59478
FM-5                    
1 35493U 09034A   24357.29671799 -.00000184  00000+0  00000+0 0  9993
2 35493   0.0145 319.7050 0001396 207.8731 304.4367  1.00272160 41212
INTELSAT 14 (IS-14)     
1 36097U 09064A   24357.40327135 -.00000257  00000+0  00000+0 0  9993
2 36097   0.0090   3.1529 0002476 269.0621 279.4170  1.00271361 55170
INTELSAT 15 (IS-15)     
1 36106U 09067A   24357.57271421 -.00000168  00000+0  00000+0 0  9992
2 36106   0.0150  58.2086 0002444 223.3736 101.3559  1.00271113 35797
DIRECTV 12              
1 36131U 09075A   24357.61397476 -.00000086  00000+0  00000+0 0  9992
2 36131   0.0383 159.3243 0000600 175.2048 235.4286  1.00271745 41125
INTELSAT 16 (IS-16)     
1 36397U 10006A   24357.22721351 -.00000229  00000+0  00000+0 0  9991
2 36397   0.0118  31.5300 0002169 233.1393 192.1970  1.00270813 54228
XM-5                    
1 37185U 10053A   24357.29089698 -.00000007  00000+0  00000+0 0  9991
2 37185   0.0182   7.8230 0000699 158.4172 274.6282  1.00271834 52047
INTELSAT 17 (IS-17)     
1 37238U 10065B   24357.58903587  .00000015  00000+0  00000+0 0  9995
2 37238   0.0116 308.3832 0002408 320.5255 100.7754  1.00272573 47806
INTELSAT 28 (IS-28)     
1 37392U 11016A   24357.53868819  .00000137  00000+0  00000+0 0  9991
2 37392   0.4026  90.0956 0004382 178.2303  40.2421  1.00129357 47853
INTELSAT 18 (IS-18)     
1 37834U 11056A   24357.61681299  .00000070  00000+0  00000+0 0  9996
2 37834   0.0190 337.8992 0001428 279.2610 236.5441  1.00271414 48388
INTELSAT 22 (IS-22)     
1 38098U 12011A   24357.58382594 -.00000042  00000+0  00000+0 0  9993
2 38098   0.0172  49.7037 0001902 225.7073  98.4923  1.00271446  1751
INTELSAT 19 (IS-19)     
1 38356U 12030A   24357.60267411 -.00000039  00000+0  00000+0 0  9990
2 38356   0.0118 333.8816 0003027 299.7676 200.9561  1.00271792 45019
INTELSAT 20 (IS-20)     
1 38740U 12043A   24357.44910260 -.00000008  00000+0  00000+0 0  9996
2 38740   0.0140  69.9165 0002829 111.5372 140.2207  1.00270099 45313
INTELSAT 21 (IS-21)     
1 38749U 12045A   24357.40882870 -.00000268  00000+0  00000+0 0  9996
2 38749   0.0158  58.2926 0002201 210.3220 272.0016  1.00269601 45095
INTELSAT 23 (IS-23)     
1 38867U 12057A   24357.16031546 -.00000269  00000+0  00000+0 0  9990
2 38867   0.0416 186.0739 0000659 225.0696  44.8003  1.00272479 44514
FM-6                    
1 39360U 13058A   24357.36993797 -.00000001  00000+0  00000+0 0  9992
2 39360   0.0025   1.4686 0000452 193.0946 273.8726  1.00272238 40631
INTELSAT 30 (IS-30)     
1 40271U 14062A   24357.05034800 -.00000136  00000+0  00000+0 0  9997
2 40271   0.0126  24.3465 0001186 350.4969 359.3363  1.00272005  1348
DIRECTV 14              
1 40333U 14078B   24357.61676583 -.00000108  00000+0  00000+0 0  9994
2 40333   0.0137 331.6066 0000144 191.9786  50.8720  1.00270442 36631
DIRECTV 15              
1 40663U 15026A   24357.61397448 -.00000085  00000+0  00000+0 0  9998
2 40663   0.0147  39.6318 0000626 143.2065  26.9852  1.00273394 35030
SKY MEXICO-1            
1 40664U 15026B   24357.51577080 -.00000217  00000+0  00000+0 0  9997
2 40664   0.0277  34.6793 0002576 251.7654 272.0257  1.00271896 35029
INTELSAT 34 (IS-34)     
1 40874U 15039A   24357.40882870 -.00000269  00000+0  00000+0 0  9995
2 40874   0.0178   3.7898 0000351 174.4245   4.9142  1.00271336 34192
INTELSAT 31 (IS-31)     
1 41581U 16035A   24356.34468169 -.00000139  00000+0  00000+0 0  9997
2 41581   0.0168  85.1016 0002137  98.8490 295.4625  1.00277359 31245
INTELSAT 36 (IS-36)     
1 41747U 16053A   24357.01368994 -.00000010  00000+0  00000+0 0  9999
2 41747   0.0106   4.2121 0001279 339.3103 180.9782  1.00272882 30517
INTELSAT 32E (IS-32E)   
1 41945U 17007B   24357.44815088 -.00000252  00000+0  00000+0 0  9995
2 41945   0.0168  32.5014 0000654 122.1434  54.9987  1.00270368 28792
INTELSAT 35E (IS-35E)   
1 42818U 17041A   24357.16396444 -.00000222  00000+0  00000+0 0  9999
2 42818   0.0156  66.2542 0002391 213.6127 195.8758  1.00273048 27387
INTELSAT 37E (IS-37E)   
1 42950U 17059A   24357.38660549 -.00000124  00000+0  00000+0 0  9990
2 42950   0.0120  56.5682 0002937 209.4597 306.5808  1.00272573 26638
AZERSPACE 2 (IS-38)     
1 43632U 18074A   24357.52757647  .00000153  00000+0  00000+0 0  9999
2 43632   0.0011 357.1874 0001860 307.6709  21.7491  1.00270295 23010
HORIZONS-3E             
1 43633U 18074B   24357.54702341 -.00000014  00000+0  00000+0 0  9990
2 43633   0.0288 189.2922 0001333  76.8657 191.3492  1.00271635 22919
AT&T T-16               
1 44333U 19034A   24357.61536920 -.00000098  00000+0  00000+0 0  9993
2 44333   0.0187  16.2138 0001154 128.1857  67.9347  1.00274776 20203
INTELSAT 39 (IS-39)     
1 44476U 19049B   24357.58938309  .00000050  00000+0  00000+0 0  9997
2 44476   0.0011 355.6754 0000600 149.5397 220.5391  1.00271520 19693
GALAXY 30 (G-30)        
1 46114U 20056C   24357.50396553  .00000054  00000+0  00000+0 0  9993
2 46114   0.0190   4.3996 0002175 265.7680 237.7842  1.00271769 15864
GALAXY 33 (G-33)        
1 54026U 22128A   24357.38104958  .00000095  00000+0  00000+0 0  9993
2 54026   0.0210  62.7555 0001851 207.8886 184.9512  1.00272380  8311
GALAXY 34 (G-34)        
1 54027U 22128B   24357.38104958  .00000075  00000+0  00000+0 0  9992
2 54027   0.0242  17.5555 0001514 256.4567 185.6510  1.00270628  8484
GALAXY 31 (G-31)        
1 54243U 22153A   24357.28976753  .00000029  00000+0  00000+0 0  9998
2 54243   0.0244  89.6631 0001529 187.2876 157.6948  1.00272192  1699
GALAXY 32 (G-32)        
1 54244U 22153B   24357.42549437 -.00000157  00000+0  00000+0 0  9993
2 54244   0.0092 341.6053 0002017 335.7857 196.2495  1.00271421  7711
GALAXY 35 (G-35)        
1 54741U 22170A   24357.46924336 -.00000145  00000+0  00000+0 0  9990
2 54741   0.0243  84.3189 0002155 188.7268 254.2904  1.00272097  7469
GALAXY 36 (G-36)        
1 54742U 22170B   24357.15319126 -.00000169  00000+0  00000+0 0  9998
2 54742   0.0149  17.1571 0000689  42.0792 358.1092  1.00269639  7334
GALAXY 37 (G-37)        
1 57493U 23112A   24357.50396553  .00000065  00000+0  00000+0 0  9993
2 57493   0.0299  60.8190 0002165 216.0882 229.0620  1.00272315  5114
